[{"OBJECT_NAME":"STARLINK-5909","OBJECT_ID":"2023-037AA","EPOCH":"2026-03-09T21:59:20.704704","MEAN_MOTION":14.98313639,"ECCENTRICITY":0.00021987,"INCLINATION":69.998,"RA_OF_ASC_NODE":283.9048,"ARG_OF_PERICENTER":269.5464,"MEAN_ANOMALY":90.5443,"EPHEMERIS_TYPE":0,"CLASSIFICATION_TYPE":"U","NORAD_CAT_ID":55938,"ELEMENT_SET_NO":999,"REV_AT_EPOCH":16401,"BSTAR":5.5307657e-5,"MEAN_MOTION_DOT":5.67e-6,"MEAN_MOTION_DDOT":0},{"OBJECT_NAME":"CZ-4B DEB","OBJECT_ID":"2013-057F","EPOCH":"2026-03-09T03:59:35.491200","MEAN_MOTION":14.62993298,"ECCENTRICITY":0.0160754,"INCLINATION":74.9188,"RA_OF_ASC_NODE":336.3162,"ARG_OF_PERICENTER":85.8895,"MEAN_ANOMALY":276.0632,"EPHEMERIS_TYPE":0,"CLASSIFICATION_TYPE":"U","NORAD_CAT_ID":40533,"ELEMENT_SET_NO":999,"REV_AT_EPOCH":57882,"BSTAR":0.0010233869,"MEAN_MOTION_DOT":6.305e-5,"MEAN_MOTION_DDOT":0}]
